{"fetched_at":"2026-03-30T09:12:31Z","count":15922,"tles":[{"name":"STARLINK-11696 [DTC]","line1":"1 64324U 25124H   26087.87081973  .00141542  00000+0  10862-2 0  9994","line2":"2 64324  42.9987 273.3668 0001909 264.6266  95.4383 15.70875771 45858","category":"Starlink"}]}